[{"OBJECT_NAME":"ONEWEB-0266","OBJECT_ID":"2021-060T","EPOCH":"2025-12-22T06:50:01.455648","MEAN_MOTION":13.16596951,"ECCENTRICITY":0.0001442,"INCLINATION":87.9049,"RA_OF_ASC_NODE":263.9976,"ARG_OF_PERICENTER":72.3704,"MEAN_ANOMALY":287.7584,"EPHEMERIS_TYPE":0,"CLASSIFICATION_TYPE":"U","NORAD_CAT_ID":48984,"ELEMENT_SET_NO":999,"REV_AT_EPOCH":21630,"BSTAR":0.00047170963,"MEAN_MOTION_DOT":1.93e-6,"MEAN_MOTION_DDOT":0},{"OBJECT_NAME":"ONEWEB-0267","OBJECT_ID":"2021-060U","EPOCH":"2025-12-22T05:16:33.693024","MEAN_MOTION":13.16593048,"ECCENTRICITY":0.00018133,"INCLINATION":87.9044,"RA_OF_ASC_NODE":264.0091,"ARG_OF_PERICENTER":68.9761,"MEAN_ANOMALY":291.1564,"EPHEMERIS_TYPE":0,"CLASSIFICATION_TYPE":"U","NORAD_CAT_ID":48985,"ELEMENT_SET_NO":999,"REV_AT_EPOCH":21630,"BSTAR":0.0001293356,"MEAN_MOTION_DOT":6.2e-7,"MEAN_MOTION_DDOT":0},{"OBJECT_NAME":"ONEWEB-0268","OBJECT_ID":"2021-060V","EPOCH":"2025-12-22T06:20:23.106048","MEAN_MOTION":13.16593416,"ECCENTRICITY":0.00018958,"INCLINATION":87.9047,"RA_OF_ASC_NODE":264.0102,"ARG_OF_PERICENTER":70.0314,"MEAN_ANOMALY":290.1021,"EPHEMERIS_TYPE":0,"CLASSIFICATION_TYPE":"U","NORAD_CAT_ID":48986,"ELEMENT_SET_NO":999,"REV_AT_EPOCH":21657,"BSTAR":0.0019136165,"MEAN_MOTION_DOT":7.44e-6,"MEAN_MOTION_DDOT":0},{"OBJECT_NAME":"ONEWEB-0269","OBJECT_ID":"2021-060W","EPOCH":"2025-12-22T05:53:02.691456","MEAN_MOTION":13.1659269,"ECCENTRICITY":0.00017553,"INCLINATION":87.9035,"RA_OF_ASC_NODE":264.0337,"ARG_OF_PERICENTER":81.8566,"MEAN_ANOMALY":278.2764,"EPHEMERIS_TYPE":0,"CLASSIFICATION_TYPE":"U","NORAD_CAT_ID":48987,"ELEMENT_SET_NO":999,"REV_AT_EPOCH":21634,"BSTAR":0.00012753323,"MEAN_MOTION_DOT":6.2e-7,"MEAN_MOTION_DDOT":0},{"OBJECT_NAME":"ONEWEB-0270","OBJECT_ID":"2021-060X","EPOCH":"2025-12-22T06:18:07.338816","MEAN_MOTION":13.16592362,"ECCENTRICITY":0.00017155,"INCLINATION":87.9044,"RA_OF_ASC_NODE":264.0111,"ARG_OF_PERICENTER":60.1429,"MEAN_ANOMALY":299.9872,"EPHEMERIS_TYPE":0,"CLASSIFICATION_TYPE":"U","NORAD_CAT_ID":48988,"ELEMENT_SET_NO":999,"REV_AT_EPOCH":21638,"BSTAR":0.00019683961,"MEAN_MOTION_DOT":8.8e-7,"MEAN_MOTION_DDOT":0},{"OBJECT_NAME":"ONEWEB-0271","OBJECT_ID":"2021-060Y","EPOCH":"2025-12-22T05:59:53.290176","MEAN_MOTION":13.16596674,"ECCENTRICITY":0.00018385,"INCLINATION":87.9055,"RA_OF_ASC_NODE":264.0029,"ARG_OF_PERICENTER":67.4111,"MEAN_ANOMALY":292.7214,"EPHEMERIS_TYPE":0,"CLASSIFICATION_TYPE":"U","NORAD_CAT_ID":48989,"ELEMENT_SET_NO":999,"REV_AT_EPOCH":21638,"BSTAR":-0.00049881362,"MEAN_MOTION_DOT":-1.78e-6,"MEAN_MOTION_DDOT":0},{"OBJECT_NAME":"ONEWEB-0272","OBJECT_ID":"2021-060Z","EPOCH":"2025-12-22T04:42:20.688192","MEAN_MOTION":13.16597056,"ECCENTRICITY":0.00018103,"INCLINATION":87.9043,"RA_OF_ASC_NODE":264.029,"ARG_OF_PERICENTER":72.2981,"MEAN_ANOMALY":287.8348,"EPHEMERIS_TYPE":0,"CLASSIFICATION_TYPE":"U","NORAD_CAT_ID":48990,"ELEMENT_SET_NO":999,"REV_AT_EPOCH":21632,"BSTAR":0.00061510697,"MEAN_MOTION_DOT":2.48e-6,"MEAN_MOTION_DDOT":0},{"OBJECT_NAME":"ONEWEB-0273","OBJECT_ID":"2021-060AA","EPOCH":"2025-12-22T05:14:16.856160","MEAN_MOTION":13.16590878,"ECCENTRICITY":0.00017583,"INCLINATION":87.9053,"RA_OF_ASC_NODE":264.0198,"ARG_OF_PERICENTER":70.0501,"MEAN_ANOMALY":290.0819,"EPHEMERIS_TYPE":0,"CLASSIFICATION_TYPE":"U","NORAD_CAT_ID":48991,"ELEMENT_SET_NO":999,"REV_AT_EPOCH":21630,"BSTAR":-1.118621e-5,"MEAN_MOTION_DOT":9.0e-8,"MEAN_MOTION_DDOT":0},{"OBJECT_NAME":"ONEWEB-0274","OBJECT_ID":"2021-060AB","EPOCH":"2025-12-22T05:50:45.418272","MEAN_MOTION":13.16595979,"ECCENTRICITY":0.00020108,"INCLINATION":87.9034,"RA_OF_ASC_NODE":264.0364,"ARG_OF_PERICENTER":77.7747,"MEAN_ANOMALY":282.361,"EPHEMERIS_TYPE":0,"CLASSIFICATION_TYPE":"U","NORAD_CAT_ID":48992,"ELEMENT_SET_NO":999,"REV_AT_EPOCH":21634,"BSTAR":0.00020588252,"MEAN_MOTION_DOT":9.2e-7,"MEAN_MOTION_DDOT":0},{"OBJECT_NAME":"ONEWEB-0275","OBJECT_ID":"2021-060AC","EPOCH":"2025-12-22T05:34:47.848800","MEAN_MOTION":13.16596106,"ECCENTRICITY":0.00017578,"INCLINATION":87.9049,"RA_OF_ASC_NODE":264.0103,"ARG_OF_PERICENTER":71.9203,"MEAN_ANOMALY":288.2119,"EPHEMERIS_TYPE":0,"CLASSIFICATION_TYPE":"U","NORAD_CAT_ID":48993,"ELEMENT_SET_NO":999,"REV_AT_EPOCH":21627,"BSTAR":0.00010923134,"MEAN_MOTION_DOT":5.5e-7,"MEAN_MOTION_DDOT":0},{"OBJECT_NAME":"ONEWEB-0276","OBJECT_ID":"2021-060AD","EPOCH":"2025-12-22T06:22:39.986976","MEAN_MOTION":13.16596526,"ECCENTRICITY":0.00015318,"INCLINATION":87.9048,"RA_OF_ASC_NODE":264.0031,"ARG_OF_PERICENTER":68.5816,"MEAN_ANOMALY":291.5478,"EPHEMERIS_TYPE":0,"CLASSIFICATION_TYPE":"U","NORAD_CAT_ID":48994,"ELEMENT_SET_NO":999,"REV_AT_EPOCH":21629,"BSTAR":0.00020510159,"MEAN_MOTION_DOT":9.1e-7,"MEAN_MOTION_DDOT":0},{"OBJECT_NAME":"ONEWEB-0277","OBJECT_ID":"2021-060AE","EPOCH":"2025-12-22T04:51:29.445696","MEAN_MOTION":13.16592552,"ECCENTRICITY":0.0001694,"INCLINATION":87.9037,"RA_OF_ASC_NODE":264.0391,"ARG_OF_PERICENTER":72.026,"MEAN_ANOMALY":288.1055,"EPHEMERIS_TYPE":0,"CLASSIFICATION_TYPE":"U","NORAD_CAT_ID":48995,"ELEMENT_SET_NO":999,"REV_AT_EPOCH":21627,"BSTAR":0.00048476028,"MEAN_MOTION_DOT":1.98e-6,"MEAN_MOTION_DDOT":0},{"OBJECT_NAME":"ONEWEB-0278","OBJECT_ID":"2021-060AF","EPOCH":"2025-12-22T06:27:13.336704","MEAN_MOTION":13.16595275,"ECCENTRICITY":0.00014237,"INCLINATION":87.9048,"RA_OF_ASC_NODE":263.999,"ARG_OF_PERICENTER":77.1709,"MEAN_ANOMALY":282.9581,"EPHEMERIS_TYPE":0,"CLASSIFICATION_TYPE":"U","NORAD_CAT_ID":48996,"ELEMENT_SET_NO":999,"REV_AT_EPOCH":21641,"BSTAR":0.00055057381,"MEAN_MOTION_DOT":2.23e-6,"MEAN_MOTION_DDOT":0},{"OBJECT_NAME":"ONEWEB-0279","OBJECT_ID":"2021-060AG","EPOCH":"2025-12-22T04:49:12.764352","MEAN_MOTION":13.1659671,"ECCENTRICITY":0.00019466,"INCLINATION":87.9045,"RA_OF_ASC_NODE":264.0108,"ARG_OF_PERICENTER":69.1303,"MEAN_ANOMALY":291.0036,"EPHEMERIS_TYPE":0,"CLASSIFICATION_TYPE":"U","NORAD_CAT_ID":48997,"ELEMENT_SET_NO":999,"REV_AT_EPOCH":21633,"BSTAR":0.00032590924,"MEAN_MOTION_DOT":1.37e-6,"MEAN_MOTION_DDOT":0},{"OBJECT_NAME":"ONEWEB-0280","OBJECT_ID":"2021-060AH","EPOCH":"2025-12-21T23:42:33.594048","MEAN_MOTION":13.16594803,"ECCENTRICITY":0.0001435,"INCLINATION":87.904,"RA_OF_ASC_NODE":264.0586,"ARG_OF_PERICENTER":63.31,"MEAN_ANOMALY":296.8177,"EPHEMERIS_TYPE":0,"CLASSIFICATION_TYPE":"U","NORAD_CAT_ID":48998,"ELEMENT_SET_NO":999,"REV_AT_EPOCH":21624,"BSTAR":0.00016471,"MEAN_MOTION_DOT":7.6e-7,"MEAN_MOTION_DDOT":0},{"OBJECT_NAME":"ONEWEB-0281","OBJECT_ID":"2021-060AJ","EPOCH":"2025-12-22T05:18:50.685408","MEAN_MOTION":13.16590652,"ECCENTRICITY":0.00018464,"INCLINATION":87.9059,"RA_OF_ASC_NODE":264.0081,"ARG_OF_PERICENTER":77.7478,"MEAN_ANOMALY":282.3859,"EPHEMERIS_TYPE":0,"CLASSIFICATION_TYPE":"U","NORAD_CAT_ID":48999,"ELEMENT_SET_NO":999,"REV_AT_EPOCH":21634,"BSTAR":-0.00018540973,"MEAN_MOTION_DOT":-5.8e-7,"MEAN_MOTION_DDOT":0}]
