ONEWEB-0266             
1 48984U 21060T   25356.28473907  .00000193  00000+0  47171-3 0  9998
2 48984  87.9049 263.9976 0001442  72.3704 287.7584 13.16596951216307
ONEWEB-0267             
1 48985U 21060U   25356.21983441  .00000062  00000+0  12934-3 0  9995
2 48985  87.9044 264.0091 0001813  68.9761 291.1564 13.16593048216300
ONEWEB-0268             
1 48986U 21060V   25356.26415632  .00000744  00000+0  19136-2 0  9990
2 48986  87.9047 264.0102 0001895  70.0314 290.1021 13.16593416216570
ONEWEB-0269             
1 48987U 21060W   25356.24517004  .00000062  00000+0  12753-3 0  9997
2 48987  87.9035 264.0337 0001755  81.8566 278.2764 13.16592690216341
ONEWEB-0270             
1 48988U 21060X   25356.26258494  .00000088  00000+0  19684-3 0  9993
2 48988  87.9044 264.0111 0001715  60.1429 299.9872 13.16592362216386
ONEWEB-0271             
1 48989U 21060Y   25356.24992234 -.00000178  00000+0 -49881-3 0  9993
2 48989  87.9055 264.0029 0001838  67.4111 292.7214 13.16596674216382
ONEWEB-0272             
1 48990U 21060Z   25356.19607278  .00000248  00000+0  61511-3 0  9990
2 48990  87.9043 264.0290 0001810  72.2981 287.8348 13.16597056216322
ONEWEB-0273             
1 48991U 21060AA  25356.21825065  .00000009  00000+0 -11186-4 0  9990
2 48991  87.9053 264.0198 0001758  70.0501 290.0819 13.16590878216308
ONEWEB-0274             
1 48992U 21060AB  25356.24358123  .00000092  00000+0  20588-3 0  9996
2 48992  87.9034 264.0364 0002010  77.7747 282.3610 13.16595979216345
ONEWEB-0275             
1 48993U 21060AC  25356.23249825  .00000055  00000+0  10923-3 0  9995
2 48993  87.9049 264.0103 0001757  71.9203 288.2119 13.16596106216277
ONEWEB-0276             
1 48994U 21060AD  25356.26574059  .00000091  00000+0  20510-3 0  9992
2 48994  87.9048 264.0031 0001531  68.5816 291.5478 13.16596526216292
ONEWEB-0277             
1 48995U 21060AE  25356.20242414  .00000198  00000+0  48476-3 0  9993
2 48995  87.9037 264.0391 0001694  72.0260 288.1055 13.16592552216279
ONEWEB-0278             
1 48996U 21060AF  25356.26890436  .00000223  00000+0  55057-3 0  9995
2 48996  87.9048 263.9990 0001423  77.1709 282.9581 13.16595275216416
ONEWEB-0279             
1 48997U 21060AG  25356.20084218  .00000137  00000+0  32591-3 0  9995
2 48997  87.9045 264.0108 0001946  69.1303 291.0036 13.16596710216330
ONEWEB-0280             
1 48998U 21060AH  25355.98788882  .00000076  00000+0  16471-3 0  9999
2 48998  87.9040 264.0586 0001435  63.3100 296.8177 13.16594803216240
ONEWEB-0281             
1 48999U 21060AJ  25356.22141997 -.00000058  00000+0 -18541-3 0  9990
2 48999  87.9059 264.0081 0001846  77.7478 282.3859 13.16590652216340
